start=new Date('2023-01-12T00:00:00.000Z').valueOf();
sats=[{"ECCENTRICITY":"0.00015590","TLE_LINE1":"1 46354U 20062AF  23011.82144737  .00002012  00000-0  15394-3 0  9995","OBJECT_ID":"2020-062AF","DECAY_DATE":null,"RA_OF_ASC_NODE":"152.0496","EPOCH":"2023-01-11T19:42:53.052768","PERIOD":"95.592","FILE":"3740419","MEAN_ELEMENT_THEORY":"SGP4","RCS_SIZE":"LARGE","CLASSIFICATION_TYPE":"U","BSTAR":"0.00015394000000","TIME_SYSTEM":"UTC","MEAN_ANOMALY":"299.3063","PERIAPSIS":"546.120","LAUNCH_DATE":"2020-09-03","MEAN_MOTION":"15.06404578","REF_FRAME":"TEME","OBJECT_TYPE":"PAYLOAD","SITE":"AFETR","INCLINATION":"53.0542","MEAN_MOTION_DDOT":"0.0000000000000","TLE_LINE2":"2 46354  53.0542 152.0496 0001559  60.8082 299.3063 15.06404578130549","EPHEMERIS_TYPE":"0","MEAN_MOTION_DOT":"0.00002012","REV_AT_EPOCH":"13054","NORAD_CAT_ID":"46354","SEMIMAJOR_AXIS":"6925.335","GP_ID":"222820582","ELEMENT_SET_NO":"999","OBJECT_NAME":"STARLINK-1657","CENTER_NAME":"EARTH","ARG_OF_PERICENTER":"60.8082","APOAPSIS":"548.279","COUNTRY_CODE":"US"},{"CENTER_NAME":"EARTH","ARG_OF_PERICENTER":"80.2856","APOAPSIS":"548.130","COUNTRY_CODE":"US","SEMIMAJOR_AXIS":"6925.337","GP_ID":"222821330","ELEMENT_SET_NO":"999","OBJECT_NAME":"STARLINK-1661","EPHEMERIS_TYPE":"0","MEAN_MOTION_DOT":"0.00001554","REV_AT_EPOCH":"13054","NORAD_CAT_ID":"46355","SITE":"AFETR","MEAN_MOTION_DDOT":"0.0000000000000","INCLINATION":"53.0539","TLE_LINE2":"2 46355  53.0539 152.1679 0001339  80.2856 279.8284 15.06403676130547","MEAN_MOTION":"15.06403676","LAUNCH_DATE":"2020-09-03","PERIAPSIS":"546.275","REF_FRAME":"TEME","OBJECT_TYPE":"PAYLOAD","RCS_SIZE":"LARGE","CLASSIFICATION_TYPE":"U","BSTAR":"0.00012315000000","MEAN_ANOMALY":"279.8284","TIME_SYSTEM":"UTC","EPOCH":"2023-01-11T19:05:44.870208","PERIOD":"95.592","FILE":"3740419","MEAN_ELEMENT_THEORY":"SGP4","ECCENTRICITY":"0.00013390","TLE_LINE1":"1 46355U 20062AG  23011.79565822  .00001554  00000-0  12315-3 0  9994","OBJECT_ID":"2020-062AG","DECAY_DATE":null,"RA_OF_ASC_NODE":"152.1679"},{"OBJECT_NAME":"STARLINK-1665","SEMIMAJOR_AXIS":"6925.353","GP_ID":"222822082","ELEMENT_SET_NO":"999","ARG_OF_PERICENTER":"93.5884","CENTER_NAME":"EARTH","APOAPSIS":"548.240","COUNTRY_CODE":"US","TLE_LINE2":"2 46356  53.0535 152.1183 0001476  93.5884 266.5274 15.06398558130548","SITE":"AFETR","INCLINATION":"53.0535","MEAN_MOTION_DDOT":"0.0000000000000","EPHEMERIS_TYPE":"0","MEAN_MOTION_DOT":"0.00000373","REV_AT_EPOCH":"13054","NORAD_CAT_ID":"46356","CLASSIFICATION_TYPE":"U","BSTAR":"0.00004397100000","MEAN_ANOMALY":"266.5274","TIME_SYSTEM":"UTC","RCS_SIZE":"LARGE","OBJECT_TYPE":"PAYLOAD","PERIAPSIS":"546.196","LAUNCH_DATE":"2020-09-03","MEAN_MOTION":"15.06398558","REF_FRAME":"TEME","DECAY_DATE":null,"RA_OF_ASC_NODE":"152.1183","ECCENTRICITY":"0.00014760","TLE_LINE1":"1 46356U 20062AH  23011.80576002  .00000373  00000-0  43971-4 0  9990","OBJECT_ID":"2020-062AH","FILE":"3740419","MEAN_ELEMENT_THEORY":"SGP4","EPOCH":"2023-01-11T19:20:17.665728","PERIOD":"95.592"},{"SEMIMAJOR_AXIS":"6925.337","GP_ID":"222821828","ELEMENT_SET_NO":"999","OBJECT_NAME":"STARLINK-1666","APOAPSIS":"548.186","CENTER_NAME":"EARTH","ARG_OF_PERICENTER":"73.5203","COUNTRY_CODE":"US","MEAN_MOTION_DDOT":"0.0000000000000","INCLINATION":"53.0528","SITE":"AFETR","TLE_LINE2":"2 46357  53.0528 132.1183 0001421  73.5203 286.5942 15.06403726130821","EPHEMERIS_TYPE":"0","NORAD_CAT_ID":"46357","REV_AT_EPOCH":"13082","MEAN_MOTION_DOT":"0.00019773","RCS_SIZE":"LARGE","BSTAR":"0.00134250000000","MEAN_ANOMALY":"286.5942","TIME_SYSTEM":"UTC","CLASSIFICATION_TYPE":"U","LAUNCH_DATE":"2020-09-03","PERIAPSIS":"546.218","MEAN_MOTION":"15.06403726","REF_FRAME":"TEME","OBJECT_TYPE":"PAYLOAD","ECCENTRICITY":"0.00014210","OBJECT_ID":"2020-062AJ","TLE_LINE1":"1 46357U 20062AJ  23011.80487937  .00019773  00000-0  13425-2 0  9992","DECAY_DATE":null,"RA_OF_ASC_NODE":"132.1183","PERIOD":"95.592","EPOCH":"2023-01-11T19:19:01.577568","FILE":"3740419","MEAN_ELEMENT_THEORY":"SGP4"},{"LAUNCH_DATE":"2020-09-03","PERIAPSIS":"546.172","REF_FRAME":"TEME","MEAN_MOTION":"15.06400486","OBJECT_TYPE":"PAYLOAD","RCS_SIZE":"LARGE","CLASSIFICATION_TYPE":"U","MEAN_ANOMALY":"294.3422","BSTAR":"0.00001695500000","TIME_SYSTEM":"UTC","EPOCH":"2023-01-11T18:49:48.809280","PERIOD":"95.592","FILE":"3740419","MEAN_ELEMENT_THEORY":"SGP4","ECCENTRICITY":"0.00015020","TLE_LINE1":"1 46358U 20062AK  23011.78459270 -.00000029  00000-0  16955-4 0  9997","OBJECT_ID":"2020-062AK","DECAY_DATE":null,"RA_OF_ASC_NODE":"152.2219","CENTER_NAME":"EARTH","ARG_OF_PERICENTER":"65.7724","APOAPSIS":"548.252","COUNTRY_CODE":"US","SEMIMAJOR_AXIS":"6925.347","GP_ID":"222821081","ELEMENT_SET_NO":"999","OBJECT_NAME":"STARLINK-1690","EPHEMERIS_TYPE":"0","REV_AT_EPOCH":"13054","MEAN_MOTION_DOT":"-0.00000029","NORAD_CAT_ID":"46358","SITE":"AFETR","INCLINATION":"53.0539","MEAN_MOTION_DDOT":"0.0000000000000","TLE_LINE2":"2 46358  53.0539 152.2219 0001502  65.7724 294.3422 15.06400486130547"},{"DECAY_DATE":null,"RA_OF_ASC_NODE":"108.4982","ECCENTRICITY":"0.00018330","OBJECT_ID":"2020-062AL","TLE_LINE1":"1 46359U 20062AL  23011.49937574  .00003766  00000-0  27143-3 0  9994","FILE":"3740054","MEAN_ELEMENT_THEORY":"SGP4","PERIOD":"95.591","EPOCH":"2023-01-11T11:59:06.063936","MEAN_ANOMALY":"314.8151","BSTAR":"0.00027143000000","TIME_SYSTEM":"UTC","CLASSIFICATION_TYPE":"U","RCS_SIZE":"LARGE","OBJECT_TYPE":"PAYLOAD","LAUNCH_DATE":"2020-09-03","PERIAPSIS":"545.871","REF_FRAME":"TEME","MEAN_MOTION":"15.06423990","TLE_LINE2":"2 46359  53.0535 108.4982 0001833  45.2987 314.8151 15.06423990131122","MEAN_MOTION_DDOT":"0.0000000000000","INCLINATION":"53.0535","SITE":"AFETR","EPHEMERIS_TYPE":"0","NORAD_CAT_ID":"46359","MEAN_MOTION_DOT":"0.00003766","REV_AT_EPOCH":"13112","OBJECT_NAME":"STARLINK-1707","SEMIMAJOR_AXIS":"6925.275","ELEMENT_SET_NO":"999","GP_ID":"222761627","APOAPSIS":"548.409","ARG_OF_PERICENTER":"45.2987","CENTER_NAME":"EARTH","COUNTRY_CODE":"US"},{"LAUNCH_DATE":"2020-09-03","REF_FRAME":"TEME","PERIAPSIS":"545.844","MEAN_MOTION":"15.06409377","OBJECT_TYPE":"PAYLOAD","RCS_SIZE":"LARGE","BSTAR":"0.00004073500000","MEAN_ANOMALY":"321.8455","TIME_SYSTEM":"UTC","CLASSIFICATION_TYPE":"U","PERIOD":"95.592","EPOCH":"2023-01-11T14:06:30.266784","FILE":"3740419","MEAN_ELEMENT_THEORY":"SGP4","ECCENTRICITY":"0.00019360","OBJECT_ID":"2020-062AM","TLE_LINE1":"1 46360U 20062AM  23011.58785031  .00000325  00000-0  40735-4 0  9996","DECAY_DATE":null,"RA_OF_ASC_NODE":"108.0994","APOAPSIS":"548.526","ARG_OF_PERICENTER":"38.2671","CENTER_NAME":"EARTH","COUNTRY_CODE":"US","SEMIMAJOR_AXIS":"6925.320","ELEMENT_SET_NO":"999","GP_ID":"222821582","OBJECT_NAME":"STARLINK-1713","EPHEMERIS_TYPE":"0","NORAD_CAT_ID":"46360","REV_AT_EPOCH":"13114","MEAN_MOTION_DOT":"0.00000325","INCLINATION":"53.0541","MEAN_MOTION_DDOT":"0.0000000000000","SITE":"AFETR","TLE_LINE2":"2 46360  53.0541 108.0994 0001936  38.2671 321.8455 15.06409377131146"},{"EPOCH":"2023-01-11T14:58:10.705728","PERIOD":"95.590","MEAN_ELEMENT_THEORY":"SGP4","FILE":"3740419","TLE_LINE1":"1 46361U 20062AN  23011.62373502  .00005729  00000-0  40280-3 0  9995","OBJECT_ID":"2020-062AN","ECCENTRICITY":"0.00017450","RA_OF_ASC_NODE":"107.9186","DECAY_DATE":null,"PERIAPSIS":"545.888","LAUNCH_DATE":"2020-09-03","REF_FRAME":"TEME","MEAN_MOTION":"15.06438115","OBJECT_TYPE":"PAYLOAD","RCS_SIZE":"LARGE","CLASSIFICATION_TYPE":"U","BSTAR":"0.00040280000000","TIME_SYSTEM":"UTC","MEAN_ANOMALY":"310.2343","REV_AT_EPOCH":"13114","MEAN_MOTION_DOT":"0.00005729","NORAD_CAT_ID":"46361","EPHEMERIS_TYPE":"0","SITE":"AFETR","MEAN_MOTION_DDOT":"0.0000000000000","INCLINATION":"53.0561","TLE_LINE2":"2 46361  53.0561 107.9186 0001745  49.8799 310.2343 15.06438115131147","COUNTRY_CODE":"US","CENTER_NAME":"EARTH","ARG_OF_PERICENTER":"49.8799","APOAPSIS":"548.305","GP_ID":"222822329","ELEMENT_SET_NO":"999","SEMIMAJOR_AXIS":"6925.232","OBJECT_NAME":"STARLINK-1722"},{"COUNTRY_CODE":"US","APOAPSIS":"548.425","CENTER_NAME":"EARTH","ARG_OF_PERICENTER":"61.6716","OBJECT_NAME":"STARLINK-1726","ELEMENT_SET_NO":"999","GP_ID":"222797383","SEMIMAJOR_AXIS":"6925.302","NORAD_CAT_ID":"46362","MEAN_MOTION_DOT":"0.00013198","REV_AT_EPOCH":"13131","EPHEMERIS_TYPE":"0","TLE_LINE2":"2 46362  53.0516 108.3378 0001817  61.6716 298.4456 15.06415347131310","INCLINATION":"53.0516","MEAN_MOTION_DDOT":"0.0000000000000","SITE":"AFETR","OBJECT_TYPE":"PAYLOAD","MEAN_MOTION":"15.06415347","LAUNCH_DATE":"2020-09-03","PERIAPSIS":"545.908","REF_FRAME":"TEME","MEAN_ANOMALY":"298.4456","BSTAR":"0.00090289000000","TIME_SYSTEM":"UTC","CLASSIFICATION_TYPE":"U","RCS_SIZE":"LARGE","MEAN_ELEMENT_THEORY":"SGP4","FILE":"3740181","PERIOD":"95.591","EPOCH":"2023-01-11T12:52:13.741824","RA_OF_ASC_NODE":"108.3378","DECAY_DATE":null,"TLE_LINE1":"1 46362U 20062AP  23011.53627016  .00013198  00000-0  90289-3 0  9991","OBJECT_ID":"2020-062AP","ECCENTRICITY":"0.00018170"},{"MEAN_MOTION_DDOT":"0.0000000000000","INCLINATION":"53.0545","SITE":"AFETR","TLE_LINE2":"2 46363  53.0545 108.3467 0001705  50.2321 309.8818 15.06406691131135","EPHEMERIS_TYPE":"0","NORAD_CAT_ID":"46363","REV_AT_EPOCH":"13113","MEAN_MOTION_DOT":"0.00004622","SEMIMAJOR_AXIS":"6925.328","ELEMENT_SET_NO":"999","GP_ID":"222762126","OBJECT_NAME":"STARLINK-1739","APOAPSIS":"548.374","ARG_OF_PERICENTER":"50.2321","CENTER_NAME":"EARTH","COUNTRY_CODE":"US","ECCENTRICITY":"0.00017050","OBJECT_ID":"2020-062AQ","TLE_LINE1":"1 46363U 20062AQ  23011.52793350  .00004622  00000-0  32891-3 0  9993","DECAY_DATE":null,"RA_OF_ASC_NODE":"108.3467","PERIOD":"95.592","EPOCH":"2023-01-11T12:40:13.454400","FILE":"3740054","MEAN_ELEMENT_THEORY":"SGP4","RCS_SIZE":"LARGE","MEAN_ANOMALY":"309.8818","BSTAR":"0.00032891000000","TIME_SYSTEM":"UTC","CLASSIFICATION_TYPE":"U","PERIAPSIS":"546.012","LAUNCH_DATE":"2020-09-03","REF_FRAME":"TEME","MEAN_MOTION":"15.06406691","OBJECT_TYPE":"PAYLOAD"}];
